ALOS (DAICHI)           
1 28931U 06002A   26076.60400093  .00001252  00000+0  21786-3 0  9990
2 28931  98.1231  32.5204 0000731  75.2830 284.8457 14.69835564 74641
H-2A R/B                
1 28932U 06002B   26076.65899949  .00007748  00000+0  38711-3 0  9990
2 28932  98.2420 224.3699 0052028 213.5875 146.2054 15.16596994 95645
RESURS-DK 1             
1 29228U 06021A   26076.80078953  .00002700  00000+0  15950-3 0  9994
2 29228  69.9330 216.0400 0001045 145.6681 214.4552 15.12803044 88758
CZ-4B R/B               
1 29507U 06046C   26076.85468098  .00003579  00000+0  18244-3 0  9993
2 29507  97.5579 121.7415 0031868 237.6086 122.2063 15.16987740 61287
CZ-2C R/B               
1 31114U 07010B   26076.54586492  .00000106  00000+0  67876-4 0  9996
2 31114  98.3985 189.4311 0057829 271.3270  88.1283 14.20249003980837
COSMO-SKYMED 1          
1 31598U 07023A   26076.62090376  .00003097  00000+0  27717-3 0  9997
2 31598  97.8881 267.7175 0001561  89.9357 270.2042 14.96602962 16096
COSMOS 2428             
1 31792U 07029A   26076.60535183 -.00000020  00000+0  14895-4 0  9995
2 31792  70.9440 186.7297 0009413 269.0146  90.9896 14.12947317965216
SL-16 R/B               
1 31793U 07029B   26076.64148901  .00000331  00000+0  19648-3 0  9992
2 31793  70.9758 155.6708 0002300 276.4606 235.9631 14.14837341966498
KORONAS-FOTON           
1 33504U 09003A   26076.80364407  .00010620  00000+0  23544-3 0  9999
2 33504  82.4269 267.4403 0011738 123.0786 237.1590 15.43517305946999
CZ-2C R/B               
1 37731U 11030B   26076.85182531  .00001422  00000+0  18527-3 0  9994
2 37731  97.8558  33.9523 0051727 325.3028  87.9889 14.81252860791301
H-2A R/B                
1 38341U 12025E   26076.89295972  .00002300  00000+0  21162-3 0  9990
2 38341  98.4739  44.5965 0043247 286.6087  73.0385 14.95226109749444
SHIJIAN-16 (SJ-16)      
1 39358U 13057A   26076.80767436  .00001449  00000+0  14405-3 0  9990
2 39358  74.9738 169.7215 0015363  91.7791 268.5157 14.92382032672712
SL-4 R/B                
1 39679U 14021B   26076.87385544  .00012319  00000+0  27194-3 0  9998
2 39679  51.6063 297.3445 0096821 132.8225 228.0948 15.39450881657533
ALOS-2                  
1 39766U 14029A   26076.83448551  .00001731  00000+0  23829-3 0  9994
2 39766  97.9193 175.3134 0001456  92.6159 267.5220 14.79537274638070
YAOGAN-29               
1 41038U 15069A   26076.89110905  .00000250  00000+0  37383-4 0  9995
2 41038  98.0135 105.3422 0001340  22.5300 337.5972 14.83003658557091
ASTRO-H (HITOMI)        
1 41337U 16012A   26076.83068632  .00002469  00000+0  14225-3 0  9992
2 41337  30.9997 304.0110 0009639  52.6877 307.4638 15.10059012553466
HXMT (HUIYAN)           
1 42758U 17034A   26076.87349536  .00004304  00000+0  21917-3 0  9990
2 42758  43.0156 331.1723 0033147 285.7188  74.0005 15.17578693483782
