[{"OBJECT_NAME":"ALOS (DAICHI)","OBJECT_ID":"2006-002A","EPOCH":"2026-03-17T14:29:45.680352","MEAN_MOTION":14.69835564,"ECCENTRICITY":7.311e-5,"INCLINATION":98.1231,"RA_OF_ASC_NODE":32.5204,"ARG_OF_PERICENTER":75.283,"MEAN_ANOMALY":284.8457,"EPHEMERIS_TYPE":0,"CLASSIFICATION_TYPE":"U","NORAD_CAT_ID":28931,"ELEMENT_SET_NO":999,"REV_AT_EPOCH":7464,"BSTAR":0.00021785529,"MEAN_MOTION_DOT":1.252e-5,"MEAN_MOTION_DDOT":0},{"OBJECT_NAME":"H-2A R/B","OBJECT_ID":"2006-002B","EPOCH":"2026-03-17T15:48:57.555936","MEAN_MOTION":15.16596994,"ECCENTRICITY":0.00520282,"INCLINATION":98.242,"RA_OF_ASC_NODE":224.3699,"ARG_OF_PERICENTER":213.5875,"MEAN_ANOMALY":146.2054,"EPHEMERIS_TYPE":0,"CLASSIFICATION_TYPE":"U","NORAD_CAT_ID":28932,"ELEMENT_SET_NO":999,"REV_AT_EPOCH":9564,"BSTAR":0.00038710642,"MEAN_MOTION_DOT":7.748e-5,"MEAN_MOTION_DDOT":0},{"OBJECT_NAME":"RESURS-DK 1","OBJECT_ID":"2006-021A","EPOCH":"2026-03-17T19:13:08.215392","MEAN_MOTION":15.12803044,"ECCENTRICITY":0.0001045,"INCLINATION":69.933,"RA_OF_ASC_NODE":216.04,"ARG_OF_PERICENTER":145.6681,"MEAN_ANOMALY":214.4552,"EPHEMERIS_TYPE":0,"CLASSIFICATION_TYPE":"U","NORAD_CAT_ID":29228,"ELEMENT_SET_NO":999,"REV_AT_EPOCH":8875,"BSTAR":0.0001595,"MEAN_MOTION_DOT":2.7e-5,"MEAN_MOTION_DDOT":0},{"OBJECT_NAME":"CZ-4B R/B","OBJECT_ID":"2006-046C","EPOCH":"2026-03-17T20:30:44.436672","MEAN_MOTION":15.1698774,"ECCENTRICITY":0.0031868,"INCLINATION":97.5579,"RA_OF_ASC_NODE":121.7415,"ARG_OF_PERICENTER":237.6086,"MEAN_ANOMALY":122.2063,"EPHEMERIS_TYPE":0,"CLASSIFICATION_TYPE":"U","NORAD_CAT_ID":29507,"ELEMENT_SET_NO":999,"REV_AT_EPOCH":6128,"BSTAR":0.00018244,"MEAN_MOTION_DOT":3.579e-5,"MEAN_MOTION_DDOT":0},{"OBJECT_NAME":"CZ-2C R/B","OBJECT_ID":"2007-010B","EPOCH":"2026-03-17T13:06:02.729088","MEAN_MOTION":14.20249003,"ECCENTRICITY":0.00578299,"INCLINATION":98.3985,"RA_OF_ASC_NODE":189.4311,"ARG_OF_PERICENTER":271.327,"MEAN_ANOMALY":88.1283,"EPHEMERIS_TYPE":0,"CLASSIFICATION_TYPE":"U","NORAD_CAT_ID":31114,"ELEMENT_SET_NO":999,"REV_AT_EPOCH":98083,"BSTAR":6.7875601e-5,"MEAN_MOTION_DOT":1.06e-6,"MEAN_MOTION_DDOT":0},{"OBJECT_NAME":"COSMO-SKYMED 1","OBJECT_ID":"2007-023A","EPOCH":"2026-03-17T14:54:06.084864","MEAN_MOTION":14.96602962,"ECCENTRICITY":0.00015614,"INCLINATION":97.8881,"RA_OF_ASC_NODE":267.7175,"ARG_OF_PERICENTER":89.9357,"MEAN_ANOMALY":270.2042,"EPHEMERIS_TYPE":0,"CLASSIFICATION_TYPE":"U","NORAD_CAT_ID":31598,"ELEMENT_SET_NO":999,"REV_AT_EPOCH":1609,"BSTAR":0.0002771665,"MEAN_MOTION_DOT":3.097e-5,"MEAN_MOTION_DDOT":0},{"OBJECT_NAME":"COSMOS 2428","OBJECT_ID":"2007-029A","EPOCH":"2026-03-17T14:31:42.398112","MEAN_MOTION":14.12947317,"ECCENTRICITY":0.00094133,"INCLINATION":70.944,"RA_OF_ASC_NODE":186.7297,"ARG_OF_PERICENTER":269.0146,"MEAN_ANOMALY":90.9896,"EPHEMERIS_TYPE":0,"CLASSIFICATION_TYPE":"U","NORAD_CAT_ID":31792,"ELEMENT_SET_NO":999,"REV_AT_EPOCH":96521,"BSTAR":1.4894663e-5,"MEAN_MOTION_DOT":-2.0e-7,"MEAN_MOTION_DDOT":0},{"OBJECT_NAME":"SL-16 R/B","OBJECT_ID":"2007-029B","EPOCH":"2026-03-17T15:23:44.650464","MEAN_MOTION":14.14837341,"ECCENTRICITY":0.00023008,"INCLINATION":70.9758,"RA_OF_ASC_NODE":155.6708,"ARG_OF_PERICENTER":276.4606,"MEAN_ANOMALY":235.9631,"EPHEMERIS_TYPE":0,"CLASSIFICATION_TYPE":"U","NORAD_CAT_ID":31793,"ELEMENT_SET_NO":999,"REV_AT_EPOCH":96649,"BSTAR":0.00019647599,"MEAN_MOTION_DOT":3.31e-6,"MEAN_MOTION_DDOT":0},{"OBJECT_NAME":"KORONAS-FOTON","OBJECT_ID":"2009-003A","EPOCH":"2026-03-17T19:17:14.847648","MEAN_MOTION":15.43517305,"ECCENTRICITY":0.0011738,"INCLINATION":82.4269,"RA_OF_ASC_NODE":267.4403,"ARG_OF_PERICENTER":123.0786,"MEAN_ANOMALY":237.159,"EPHEMERIS_TYPE":0,"CLASSIFICATION_TYPE":"U","NORAD_CAT_ID":33504,"ELEMENT_SET_NO":999,"REV_AT_EPOCH":94699,"BSTAR":0.00023544,"MEAN_MOTION_DOT":0.0001062,"MEAN_MOTION_DDOT":0},{"OBJECT_NAME":"CZ-2C R/B","OBJECT_ID":"2011-030B","EPOCH":"2026-03-17T20:26:37.706784","MEAN_MOTION":14.8125286,"ECCENTRICITY":0.0051727,"INCLINATION":97.8558,"RA_OF_ASC_NODE":33.9523,"ARG_OF_PERICENTER":325.3028,"MEAN_ANOMALY":87.9889,"EPHEMERIS_TYPE":0,"CLASSIFICATION_TYPE":"U","NORAD_CAT_ID":37731,"ELEMENT_SET_NO":999,"REV_AT_EPOCH":79130,"BSTAR":0.00018527,"MEAN_MOTION_DOT":1.422e-5,"MEAN_MOTION_DDOT":0},{"OBJECT_NAME":"H-2A R/B","OBJECT_ID":"2012-025E","EPOCH":"2026-03-17T21:25:51.719808","MEAN_MOTION":14.95226109,"ECCENTRICITY":0.0043247,"INCLINATION":98.4739,"RA_OF_ASC_NODE":44.5965,"ARG_OF_PERICENTER":286.6087,"MEAN_ANOMALY":73.0385,"EPHEMERIS_TYPE":0,"CLASSIFICATION_TYPE":"U","NORAD_CAT_ID":38341,"ELEMENT_SET_NO":999,"REV_AT_EPOCH":74944,"BSTAR":0.00021162,"MEAN_MOTION_DOT":2.3e-5,"MEAN_MOTION_DDOT":0},{"OBJECT_NAME":"SHIJIAN-16 (SJ-16)","OBJECT_ID":"2013-057A","EPOCH":"2026-03-17T19:23:03.064704","MEAN_MOTION":14.92382032,"ECCENTRICITY":0.0015363,"INCLINATION":74.9738,"RA_OF_ASC_NODE":169.7215,"ARG_OF_PERICENTER":91.7791,"MEAN_ANOMALY":268.5157,"EPHEMERIS_TYPE":0,"CLASSIFICATION_TYPE":"U","NORAD_CAT_ID":39358,"ELEMENT_SET_NO":999,"REV_AT_EPOCH":67271,"BSTAR":0.00014405,"MEAN_MOTION_DOT":1.449e-5,"MEAN_MOTION_DDOT":0},{"OBJECT_NAME":"SL-4 R/B","OBJECT_ID":"2014-021B","EPOCH":"2026-03-17T20:58:21.110016","MEAN_MOTION":15.39450881,"ECCENTRICITY":0.0096821,"INCLINATION":51.6063,"RA_OF_ASC_NODE":297.3445,"ARG_OF_PERICENTER":132.8225,"MEAN_ANOMALY":228.0948,"EPHEMERIS_TYPE":0,"CLASSIFICATION_TYPE":"U","NORAD_CAT_ID":39679,"ELEMENT_SET_NO":999,"REV_AT_EPOCH":65753,"BSTAR":0.00027194,"MEAN_MOTION_DOT":0.00012319,"MEAN_MOTION_DDOT":0},{"OBJECT_NAME":"ALOS-2","OBJECT_ID":"2014-029A","EPOCH":"2026-03-17T20:01:39.548064","MEAN_MOTION":14.79537274,"ECCENTRICITY":0.0001456,"INCLINATION":97.9193,"RA_OF_ASC_NODE":175.3134,"ARG_OF_PERICENTER":92.6159,"MEAN_ANOMALY":267.522,"EPHEMERIS_TYPE":0,"CLASSIFICATION_TYPE":"U","NORAD_CAT_ID":39766,"ELEMENT_SET_NO":999,"REV_AT_EPOCH":63807,"BSTAR":0.00023829,"MEAN_MOTION_DOT":1.731e-5,"MEAN_MOTION_DDOT":0},{"OBJECT_NAME":"YAOGAN-29","OBJECT_ID":"2015-069A","EPOCH":"2026-03-17T21:23:11.821920","MEAN_MOTION":14.83003658,"ECCENTRICITY":0.000134,"INCLINATION":98.0135,"RA_OF_ASC_NODE":105.3422,"ARG_OF_PERICENTER":22.53,"MEAN_ANOMALY":337.5972,"EPHEMERIS_TYPE":0,"CLASSIFICATION_TYPE":"U","NORAD_CAT_ID":41038,"ELEMENT_SET_NO":999,"REV_AT_EPOCH":55709,"BSTAR":3.7383e-5,"MEAN_MOTION_DOT":2.5e-6,"MEAN_MOTION_DDOT":0},{"OBJECT_NAME":"ASTRO-H (HITOMI)","OBJECT_ID":"2016-012A","EPOCH":"2026-03-17T19:56:11.298048","MEAN_MOTION":15.10059012,"ECCENTRICITY":0.0009639,"INCLINATION":30.9997,"RA_OF_ASC_NODE":304.011,"ARG_OF_PERICENTER":52.6877,"MEAN_ANOMALY":307.4638,"EPHEMERIS_TYPE":0,"CLASSIFICATION_TYPE":"U","NORAD_CAT_ID":41337,"ELEMENT_SET_NO":999,"REV_AT_EPOCH":55346,"BSTAR":0.00014225,"MEAN_MOTION_DOT":2.469e-5,"MEAN_MOTION_DDOT":0},{"OBJECT_NAME":"HXMT (HUIYAN)","OBJECT_ID":"2017-034A","EPOCH":"2026-03-17T20:57:49.999104","MEAN_MOTION":15.17578693,"ECCENTRICITY":0.0033147,"INCLINATION":43.0156,"RA_OF_ASC_NODE":331.1723,"ARG_OF_PERICENTER":285.7188,"MEAN_ANOMALY":74.0005,"EPHEMERIS_TYPE":0,"CLASSIFICATION_TYPE":"U","NORAD_CAT_ID":42758,"ELEMENT_SET_NO":999,"REV_AT_EPOCH":48378,"BSTAR":0.00021917,"MEAN_MOTION_DOT":4.304e-5,"MEAN_MOTION_DDOT":0}]
